ORBCOMM FM33 [-]        
1 25983U 99065D   24029.66635904  .00001343  00000+0  49375-3 0  9993
2 25983  45.0278 232.1722 0008745  47.0648  56.5224 14.37240866263496
ORBCOMM FM36 [-]        
1 25984U 99065E   24029.74371642  .00001569  00000+0  59364-3 0  9998
2 25984  45.0417 315.5551 0004458 298.1075  61.9322 14.35119816262472
ORBCOMM FM35 [+]        
1 25985U 99065F   24029.82838392  .00001382  00000+0  53252-3 0  9991
2 25985  45.0415 317.5088 0003813  15.4832 344.6132 14.34768882262486
ORBCOMM FM34 [-]        
1 25986U 99065G   24029.79599828  .00001414  00000+0  54419-3 0  9998
2 25986  45.0412 318.1698 0004963 333.9362  26.1235 14.34724035262445
ORBCOMM FM38 [-]        
1 33060U 08031A   24029.56042019  .00002796  00000+0  42304-3 0  9997
2 33060  48.4396 191.4359 0004833  34.5960 325.5267 14.76834478840043
ORBCOMM FM41 [-]        
1 33061U 08031B   24029.60908903  .00002651  00000+0  40510-3 0  9993
2 33061  48.4429 197.5916 0004041  18.2235  95.4860 14.76574640840002
ORBCOMM FM29 [-]        
1 33062U 08031C   24028.64416403  .00002626  00000+0  40244-3 0  9992
2 33062  48.4378 210.1752 0005953  14.6177  97.2770 14.76475948839339
ORBCOMM FM39 [-]        
1 33063U 08031D   24028.99632951  .00001920  00000+0  30841-3 0  9997
2 33063  48.4390 228.2898 0007069 351.8649   8.2149 14.75568567839516
